0 FENGYUN 1C DEB
1 30478U 99025AGR 13281.58513294  .00005461  00000-0  14535-2 0  8387
2 30478 098.9318 045.1125 0094308 301.4020 188.2926 14.46345670350705
0 FENGYUN 1C DEB
1 30478U 99025AGR 13282.62118350  .00008937  00000-0  23669-2 0  8397
2 30478 098.9315 046.2041 0094335 298.2955 182.8918 14.46374207350856
0 FENGYUN 1C DEB
1 30478U 99025AGR 13283.65976162  .00008725  00000-0  23103-2 0  8404
2 30478 098.9311 047.2984 0094434 295.1496 190.7642 14.46385053351006
0 FENGYUN 1C DEB
1 30478U 99025AGR 13285.80996457  .00007169  00000-0  19000-2 0  8426
2 30478 098.9310 049.5637 0094571 288.6628 226.9927 14.46410149351318
0 FENGYUN 1C DEB
1 30478U 99025AGR 13286.84913773  .00007738  00000-0  20486-2 0  8434
2 30478 098.9312 050.6586 0094645 285.5260 238.1093 14.46423929351461
0 FENGYUN 1C DEB
1 30478U 99025AGR 13287.87927766  .00013398  00000-0  35324-2 0  8442
2 30478 098.9314 051.7440 0094684 282.4490 202.2086 14.46441389351619
0 FENGYUN 1C DEB
1 30478U 99025AGR 13288.91691346  .00011312  00000-0  29838-2 0  8458
2 30478 098.9319 052.8375 0094765 279.3393 205.4325 14.46463420351767
0 FENGYUN 1C DEB
1 30478U 99025AGR 13289.95422997  .00010801  00000-0  28485-2 0  8467
2 30478 098.9322 053.9308 0094827 276.2237 207.0740 14.46480971351917
0 FENGYUN 1C DEB
1 30478U 99025AGR 13291.32413196  .00010829  00000-0  28545-2 0  8470
2 30478 098.9328 055.3745 0094813 272.1535 140.6554 14.46505357352108
0 FENGYUN 1C DEB
1 30478U 99025AGR 13292.92831390  .00011180  00000-0  29441-2 0  8485
2 30478 098.9329 057.0651 0094930 267.3796 214.3897 14.46537303352340
0 FENGYUN 1C DEB
1 30478U 99025AGR 13294.17345087  .00013193  00000-0  34684-2 0  8499
2 30478 098.9329 058.3778 0095072 263.6834 218.5276 14.46559802352529
0 FENGYUN 1C DEB
1 30478U 99025AGR 13295.33748924  .00014456  00000-0  37965-2 0  8505
2 30478 098.9325 059.6047 0095026 260.2046 160.4547 14.46582848352684
